{"spkid": "50163761", "covariance": {"epoch": "2456786.5", "labels": ["e", "q", "tp", "node", "peri", "i"], "data": [["7.098399688997958E-16", "-1.628421194341228E-15", "8.074532985170542E-13", "2.338894166682088E-13", "1.467110397304617E-13", "-2.069106801517673E-14"], ["-1.628421194341228E-15", "3.753108746283333E-15", "-1.717447457204054E-12", "-5.741929717666138E-13", "-2.689412264624149E-13", "5.356338827307779E-14"], ["8.074532985170542E-13", "-1.717447457204054E-12", "1.989381373569037E-9", "-6.334165903278655E-11", "7.614504301363298E-10", "2.926430038317581E-11"], ["2.338894166682088E-13", "-5.741929717666138E-13", "-6.334165903278655E-11", "1.310039667054437E-9", "-1.300038245863559E-9", "7.059595012640534E-11"], ["1.467110397304617E-13", "-2.689412264624149E-13", "7.614504301363298E-10", "-1.300038245863559E-9", "1.590912527220185E-9", "-6.461563330074886E-11"], ["-2.069106801517673E-14", "5.356338827307779E-14", "2.926430038317581E-11", "7.059595012640534E-11", "-6.461563330074886E-11", "3.215217406602162E-11"]], "elements": [{"label": "e", "sigma": 2.66428220896322e-08, "name": "e", "units": null, "title": "eccentricity", "value": ".6035818881115355"}, {"label": "q", "sigma": 6.12626211182915e-08, "name": "q", "title": "perihelion distance", "value": ".9625860234060181", "units": "au"}, {"label": "tp", "units": "TDB", "title": "time of perihelion passage", "value": "2457109.989843091951", "name": "tp", "sigma": 4.46024816974239e-05}, {"units": "deg", "title": "longitude of the ascending node", "value": "198.0277784134499", "name": "om", "sigma": 3.61944701170557e-05, "label": "node"}, {"name": "w", "sigma": 3.98862448372893e-05, "units": "deg", "title": "argument of perihelion", "value": "225.1474792927986", "label": "peri"}, {"sigma": 5.67028871099361e-06, "name": "i", "units": "deg", "title": "inclination", "value": "3.108880729229709", "label": "i"}]}, "elements": [{"name": "e", "sigma": "2.5259E-8", "units": null, "title": "eccentricity", "value": ".6041072043525595", "label": "e"}, {"label": "a", "sigma": "1.4082E-8", "name": "a", "units": "au", "value": "2.427366192929393", "title": "semi-major axis"}, {"label": "q", "units": "au", "value": ".9609767881789018", "title": "perihelion distance", "sigma": "5.7653E-8", "name": "q"}, {"name": "i", "sigma": "5.6691E-6", "value": "3.11136523420365", "title": "inclination; angle with respect to x-y ecliptic plane", "units": "deg", "label": "i"}, {"units": "deg", "title": "longitude of the ascending node", "value": "197.9445842235176", "sigma": "3.6187E-5", "name": "om", "label": "node"}, {"sigma": "3.9904E-5", "name": "w", "units": "deg", "title": "argument of perihelion", "value": "225.1472574366118", "label": "peri"}, {"label": "M", "units": "deg", "title": "mean anomaly", "value": "346.4221992253832", "sigma": "2.0881E-5", "name": "ma"}, {"label": "tp", "units": "TDB", "title": "time of perihelion passage", "value": "2461252.598870349840", "name": "tp", "sigma": "8.0573E-5"}, {"sigma": "1.202E-5", "name": "per", "units": "d", "value": "1381.342504377091", "title": "sidereal orbital period", "label": "period"}, {"units": "deg/d", "value": ".2606160303177958", "title": "mean motion", "name": "n", "sigma": "2.2679E-9", "label": "n"}, {"label": "Q", "sigma": "2.2589E-8", "name": "ad", "units": "au", "value": "3.893755597679883", "title": "aphelion distance"}], "epoch": "2461200.5"}